STARLINK-5359           
1 54864U 22177AW  26068.19902006 -.00000882  00000+0 -50210-4 0  9996
2 54864  43.0015 122.7958 0001342 281.4954  78.5738 15.02537147177030
KORSAT-2                
1 62377U 24247A   26068.41070335  .00005163  00000+0  43498-3 0  9994
2 62377  45.4085 225.0391 0009773  57.7708 302.4117 14.99271316 66592
