[{"OBJECT_NAME":"STARLINK-5359","OBJECT_ID":"2022-177AW","EPOCH":"2026-03-09T04:46:35.333184","MEAN_MOTION":15.02537147,"ECCENTRICITY":0.00013428,"INCLINATION":43.0015,"RA_OF_ASC_NODE":122.7958,"ARG_OF_PERICENTER":281.4954,"MEAN_ANOMALY":78.5738,"EPHEMERIS_TYPE":0,"CLASSIFICATION_TYPE":"U","NORAD_CAT_ID":54864,"ELEMENT_SET_NO":999,"REV_AT_EPOCH":17703,"BSTAR":-5.0209848e-5,"MEAN_MOTION_DOT":-8.82e-6,"MEAN_MOTION_DDOT":0},{"OBJECT_NAME":"KORSAT-2","OBJECT_ID":"2024-247A","EPOCH":"2026-03-09T09:51:24.769440","MEAN_MOTION":14.99271316,"ECCENTRICITY":0.00097734,"INCLINATION":45.4085,"RA_OF_ASC_NODE":225.0391,"ARG_OF_PERICENTER":57.7708,"MEAN_ANOMALY":302.4117,"EPHEMERIS_TYPE":0,"CLASSIFICATION_TYPE":"U","NORAD_CAT_ID":62377,"ELEMENT_SET_NO":999,"REV_AT_EPOCH":6659,"BSTAR":0.00043497982,"MEAN_MOTION_DOT":5.163e-5,"MEAN_MOTION_DDOT":0}]
